[{"OBJECT_NAME":"NANOSATC-BR1","OBJECT_ID":"2014-033Q","EPOCH":"2026-03-09T23:35:03.168384","MEAN_MOTION":15.28136801,"ECCENTRICITY":0.00046435,"INCLINATION":98.0845,"RA_OF_ASC_NODE":92.7804,"ARG_OF_PERICENTER":147.6715,"MEAN_ANOMALY":212.4808,"EPHEMERIS_TYPE":0,"CLASSIFICATION_TYPE":"U","NORAD_CAT_ID":40024,"ELEMENT_SET_NO":999,"REV_AT_EPOCH":63881,"BSTAR":0.00074295057,"MEAN_MOTION_DOT":0.00020336,"MEAN_MOTION_DDOT":0},{"OBJECT_NAME":"STARLINK-31148","OBJECT_ID":"2024-005P","EPOCH":"2026-03-09T22:00:01.999584","MEAN_MOTION":15.27549044,"ECCENTRICITY":0.00020105,"INCLINATION":43.0004,"RA_OF_ASC_NODE":218.2161,"ARG_OF_PERICENTER":282.0125,"MEAN_ANOMALY":359.9652,"EPHEMERIS_TYPE":0,"CLASSIFICATION_TYPE":"U","NORAD_CAT_ID":58741,"ELEMENT_SET_NO":999,"REV_AT_EPOCH":578,"BSTAR":0.0021954076,"MEAN_MOTION_DOT":0.00060592,"MEAN_MOTION_DDOT":0}]
